OBJECT_NAME,OBJECT_ID,EPOCH,MEAN_MOTION,ECCENTRICITY,INCLINATION,RA_OF_ASC_NODE,ARG_OF_PERICENTER,MEAN_ANOMALY,EPHEMERIS_TYPE,CLASSIFICATION_TYPE,NORAD_CAT_ID,ELEMENT_SET_NO,REV_AT_EPOCH,BSTAR,MEAN_MOTION_DOT,MEAN_MOTION_DDOT
SAUDISAT 1C (SO-50),2002-058C,2026-07-19T19:00:15.820128,14.83103200,.0074388,64.5521,28.1016,256.4358,102.8454,0,U,27607,999,26929,.59404E-4,.35E-5,0
SAUDISAT 2,2004-025F,2026-07-19T19:02:46.472352,14.56699612,.0024359,98.5523,201.6205,193.7969,166.2565,0,U,28371,999,17049,.30373E-4,.86E-6,0
SAUDISAT 3,2007-012B,2026-07-19T19:57:26.731296,14.71441645,.0015814,98.1469,151.2568,120.9620,239.3142,0,U,31118,999,3254,.24333E-4,.1E-5,0
PISAT,2016-059B,2026-07-19T11:57:36.277056,14.69033802,.0030552,97.8193,199.5653,101.6970,258.7667,0,U,41784,999,52448,.78635E-4,.417E-5,0
FLYING LAPTOP,2017-042G,2026-07-19T20:17:34.829664,15.01331609,.0019453,97.4834,355.1546,17.7534,342.4366,0,U,42831,999,49135,.16447E-3,.2067E-4,0
SALSAT,2020-068K,2026-07-19T10:52:42.083040,15.30206359,.00096718,97.8865,205.4942,177.8105,182.3178,0,U,46495,999,32029,.13371977E-3,.3827E-4,0
